[{"OBJECT_NAME":"CHUANGXIN 16A (CX-16A)","OBJECT_ID":"2022-102A","EPOCH":"2026-03-09T19:59:28.991616","MEAN_MOTION":15.05552649,"ECCENTRICITY":0.0005063,"INCLINATION":28.9941,"RA_OF_ASC_NODE":256.1289,"ARG_OF_PERICENTER":43.7318,"MEAN_ANOMALY":316.3682,"EPHEMERIS_TYPE":0,"CLASSIFICATION_TYPE":"U","NORAD_CAT_ID":53586,"ELEMENT_SET_NO":999,"REV_AT_EPOCH":19453,"BSTAR":0.00020134,"MEAN_MOTION_DOT":3.128e-5,"MEAN_MOTION_DDOT":0},{"OBJECT_NAME":"STARLINK-34917","OBJECT_ID":"2025-175S","EPOCH":"2026-03-09T22:00:01.999584","MEAN_MOTION":15.05633082,"ECCENTRICITY":0.00022216,"INCLINATION":97.6024,"RA_OF_ASC_NODE":302.9089,"ARG_OF_PERICENTER":73.1727,"MEAN_ANOMALY":24.4203,"EPHEMERIS_TYPE":0,"CLASSIFICATION_TYPE":"U","NORAD_CAT_ID":65190,"ELEMENT_SET_NO":999,"REV_AT_EPOCH":579,"BSTAR":0.0015512338,"MEAN_MOTION_DOT":0.00022383,"MEAN_MOTION_DDOT":0}]
